# From MPEC 2022-K19
P/2016 R4 (Gibbs),e,10.8770,168.2617,174.1351,5.332865,0.0800319,0.47614314,191.9765,02/17.0/2023,2000,g 12.5,4.0
# From MPC105543
P/2016 S1 (PANSTARRS),e,94.7319,227.6562,273.2504,8.275440,0.0414016,0.71044436,89.5564,02/17.0/2023,2000,g 12.0,4.0
# From MPC106345
P/2016 WM48 (Lemmon),e,117.5899,59.9366,36.1458,8.169749,0.0422076,0.78349008,92.2020,02/17.0/2023,2000,g 15.0,4.0
# From MPEC 2021-P47
C/2016 X1 (Lemmon),e,26.4596,256.3380,224.4819,1388,0.0000191,0.99455428,0.0000,04/27.9350/2019,2000,g  6.0,4.0
# From MPC114598
C/2017 AB5 (PANSTARRS),e,32.4671,42.5943,78.2816,2811,0.0000066,0.99672585,0.0000,02/14.6754/2018,2000,g  5.5,4.0
# From MPEC 2022-OB6
C/2017 B3 (LINEAR),h,02/01.3314/2019,54.1600,2.1760,284.8332,1.000196,3.929971,2000,6.0,4.0
# From MPC103847
P/2017 B4 (PANSTARRS),e,20.0584,121.4578,11.0197,4.410520,0.1064068,0.36495152,359.9130,01/05.0/2017,2000,g 14.5,4.0
# From MPEC 2022-OB6
P/2017 D1 (Fuls),e,20.7680,82.1907,7.9536,4.827548,0.0929211,0.43703679,225.7770,02/17.0/2023,2000,g 14.0,4.0
# From MPEC 2022-OB6
P/2017 D4 (PANSTARRS),e,10.5508,264.9463,212.1216,7.547979,0.0475289,0.62908096,111.9597,02/17.0/2023,2000,g 13.0,4.0
# From MPC104794
P/2017 G1 (PANSTARRS),e,4.7847,249.6804,224.3428,7.274857,0.0502305,0.65383901,124.8947,02/17.0/2023,2000,g 13.5,4.0
# From MPC108595
P/2017 G2 (PANSTARRS),e,47.9618,79.8483,105.3945,8.050194,0.0431514,0.64756563,89.7077,02/17.0/2023,2000,g 13.0,4.0
# From MPC115882
C/2017 K1 (PANSTARRS),h,03/17.6623/2018,154.0220,225.7387,4.4010,1.003308,7.280919,2000,7.0,4.0
# From MPEC 2023-CD7
C/2017 K2 (PANSTARRS),h,12/19.6889/2022,87.5633,88.2360,236.2014,1.000790,1.796892,2000,1.5,4.0
# From MPEC 2021-N06
P/2017 K3 (Gasparovic),e,4.2735,354.2989,253.4094,5.584984,0.0746743,0.57905789,156.1693,02/17.0/2023,2000,g 14.5,4.0
# From MPEC 2021-P47
C/2017 K5 (PANSTARRS),h,03/27.3538/2020,82.2565,102.3918,172.0693,1.005102,7.684293,2000,5.0,4.0
# From MPEC 2022-OB6
C/2017 M4 (ATLAS),h,01/17.9748/2019,105.6370,65.9765,167.5987,1.001200,3.251026,2000,6.0,4.0
# From MPC118841
C/2017 M5 (TOTAS),h,06/04.0227/2018,15.8607,216.2885,92.8773,1.004907,6.006645,2000,6.5,4.0
# From MPC114599
P/2017 P1 (PANSTARRS),e,7.6890,221.3605,122.7595,7.914553,0.0442654,0.31076859,75.2522,02/17.0/2023,2000,g 10.0,4.0
# From MPC114599
C/2017 S3 (PANSTARRS),h,08/16.7985/2018,99.1892,171.2765,255.7927,1.000094,0.204623,2000,12.9,4.0
# From MPC109591
C/2017 S6 (Catalina),h,02/26.2999/2018,152.8626,131.1541,135.0670,1.001033,1.552494,2000,12.5,4.0
# From MPEC 2022-OB6
P/2017 S8 (PANSTARRS),e,29.8486,191.5189,254.8607,2.778199,0.2128428,0.39082822,32.9451,02/17.0/2023,2000,g 16.0,4.0
# From MPC114600
C/2017 T1 (Heinze),e,96.9290,102.6214,97.0428,10642,0.0000009,0.99994492,0.0000,02/20.6087/2018,2000,g 14.5,4.0
# From MPEC 2022-YN2
C/2017 T2 (PANSTARRS),e,57.2666,64.4162,92.9165,1566,0.0000159,0.99896991,0.0000,05/04.8288/2020,2000,g  5.0,4.0
# From MPC114600
C/2017 T3 (ATLAS),e,88.2629,230.2348,246.7947,1256,0.0000221,0.99934494,0.0000,07/19.3012/2018,2000,g 10.0,4.0
# From MPC115882
P/2017 TW13 (Lemmon),e,44.8504,322.2504,119.9144,7.135372,0.0517105,0.71032543,87.9630,02/17.0/2023,2000,g 15.0,2.0
# From MPEC 2022-K19
P/2017 U3 (PANSTARRS),e,15.9182,165.1063,296.2603,4.924525,0.0901898,0.09970297,126.8942,02/17.0/2023,2000,g 11.0,4.0
# From MPEC 2023-CD7
C/2017 U4 (PANSTARRS),e,158.2017,245.9084,158.9770,11000,0.0000009,0.99929778,0.0000,09/21.5547/2018,2000,g  7.0,4.0
# From MPEC 2023-A50
C/2017 U7 (PANSTARRS),h,09/15.3398/2019,142.6147,276.2693,326.4302,1.001724,6.428212,2000,8.3,2.0
# From MPC114601
P/2017 W3 (Gibbs),e,18.1684,210.2058,327.8108,7.830778,0.0449776,0.50632709,81.6969,02/17.0/2023,2000,g 10.5,4.0
# From MPEC 2021-R75
C/2017 X1 (PANSTARRS),e,31.3385,251.1585,283.1255,31.00180,0.0057098,0.84958269,9.7586,02/17.0/2023,2000,g 10.0,4.0
# From MPEC 2022-QD9
C/2017 Y2 (PANSTARRS),h,11/05.1029/2020,128.4374,66.0131,147.9353,1.001455,4.632552,2000,15.0,4.0
# From MPC111770
P/2017 Y3 (Leonard),e,27.5663,153.8613,67.5728,9.820187,0.0320276,0.86942741,58.7581,02/17.0/2023,2000,g 16.5,4.0
# From MPEC 2021-P47
C/2018 A3 (ATLAS),e,139.5384,194.2938,86.3522,364.9130,0.0001414,0.99101458,0.0000,01/10.8064/2019,2000,g  8.5,4.0
# From MPC114601
C/2018 A4 (PANSTARRS),e,3.1508,97.5784,355.9555,12.18453,0.0231735,0.80389510,40.1932,02/17.0/2023,2000,g 14.0,4.0
# From MPC109147
P/2018 A5 (PANSTARRS),e,23.6111,87.7909,359.4867,5.628240,0.0738151,0.52346473,145.5364,02/17.0/2023,2000,g 15.0,4.0
# From MPEC 2022-ST7
C/2018 A6 (Gibbs),e,77.0625,340.3841,264.3498,15.04802,0.0168844,0.79944339,22.2282,02/17.0/2023,2000,g  9.0,4.0
# From MPEC 2022-O08
C/2018 B1 (Lemmon),e,162.4187,133.1917,68.4074,3576,0.0000046,0.99856490,0.0000,03/27.1731/2018,2000,g  9.0,4.0
# From MPC114601
P/2018 C1 (Lemmon-Read),e,5.1113,270.3308,235.6947,5.652364,0.0733430,0.53204735,133.4586,02/17.0/2023,2000,g 13.5,4.0
# From MPC114601
C/2018 C2 (Lemmon),e,34.4633,91.2636,133.9978,26436,0.0000002,0.99992584,0.0000,05/31.1873/2018,2000,g 13.0,4.0
# From MPEC 2022-M88
C/2018 DO4 (Lemmon),e,160.4425,251.4364,176.3059,25.34247,0.0077256,0.90476374,9.8896,02/17.0/2023,2000,g 11.0,4.0
# From MPC114602
C/2018 E1 (ATLAS),e,72.5005,146.8286,299.2825,53.86790,0.0024929,0.95003293,4.4020,02/17.0/2023,2000,g 10.5,4.0
# From MPC114602
C/2018 EN4 (NEOWISE),e,81.9445,136.1291,35.0187,17.90950,0.0130041,0.91842035,22.3794,02/17.0/2023,2000,g 15.0,4.0
# From MPEC 2023-CD7
C/2018 EF9 (Lemmon),e,84.6277,172.5610,72.6349,450.0573,0.0001032,0.99652904,0.0000,05/21.0712/2018,2000,g 18.0,2.0
# From MPEC 2021-R75
C/2018 F1 (Grauer),e,46.0810,177.2767,71.5839,239.4975,0.0002659,0.98748580,0.0000,12/11.8733/2018,2000,g 11.5,4.0
# From MPEC 2023-A50
C/2018 F4 (PANSTARRS),e,78.0838,26.5155,263.2191,8430,0.0000013,0.99959149,0.0000,12/03.0971/2019,2000,g 11.0,6.0
# From MPEC 2021-Y10
C/2018 F4-A,e,78.0840,26.5157,263.2159,7462,0.0000015,0.99953852,0.0000,12/03.0853/2019,2000,g 11.0,6.0
# From MPEC 2021-W31
C/2018 F4-B,e,78.0847,26.5153,263.2009,9427,0.0000011,0.99963474,0.0000,12/03.0215/2019,2000,g 11.0,6.0
# From MPC114602
P/2018 H2 (PANSTARRS),e,7.4278,67.8075,120.0920,4.383745,0.1073832,0.54231006,199.5386,02/17.0/2023,2000,g 16.6,2.0
# From MPC114602
C/2018 K1 (Weiland),e,164.1870,260.1919,325.2501,30.22290,0.0059320,0.93778076,10.5351,02/17.0/2023,2000,g 14.9,4.0
# From MPEC 2021-R75
C/2018 KJ3 (Lemmon),e,136.6708,91.6557,217.6624,942.3219,0.0000341,0.99615137,0.0000,09/09.9805/2019,2000,g 12.2,2.0
# From MPC114602
P/2018 L1 (PANSTARRS),e,10.5790,268.6120,18.0372,3.653938,0.1411115,0.48176034,219.9181,02/17.0/2023,2000,g 15.0,4.0
# From MPEC 2021-P47
C/2018 L2 (ATLAS),e,67.2530,242.9997,56.3297,256.8459,0.0002394,0.99331731,0.0000,12/02.1300/2018,2000,g 10.0,4.0
# From MPC114603
P/2018 L4 (PANSTARRS),e,26.6169,145.1770,140.6164,4.945597,0.0896140,0.65900098,148.9711,02/17.0/2023,2000,g 17.5,4.0
# From MPC119996
P/2018 L5 (Leonard),e,2.2089,219.0393,93.9627,3.628980,0.1425697,0.36420624,249.2655,02/17.0/2023,2000,g 14.5,4.0
# From MPC117070
C/2018 M1 (Catalina),e,37.2798,339.4202,14.2471,21.50652,0.0098821,0.93928624,16.6228,02/17.0/2023,2000,g 15.5,4.0
# From MPEC 2022-M21
C/2018 N1 (NEOWISE),e,159.4082,292.5444,354.7357,511.7106,0.0000851,0.99744238,0.0000,08/02.9393/2018,2000,g 15.5,4.0
# From MPEC 2022-YN2
C/2018 N2 (ASASSN),h,11/11.3837/2019,77.5546,25.2033,24.4886,1.000982,3.127950,2000,6.0,4.0
# From MPC114603
C/2018 O1 (ATLAS),e,153.9979,87.7917,162.7100,28.09024,0.0066202,0.94454672,10.7869,02/17.0/2023,2000,g 17.0,4.0
# From MPEC 2022-M21
P/2018 P3 (PANSTARRS),e,8.9147,59.1596,305.9909,3.004053,0.1892965,0.41712666,300.8050,02/17.0/2023,2000,g 14.5,4.0
# From MPC114603
P/2018 P4 (PANSTARRS),e,23.1079,353.0652,8.4402,6.685122,0.0570217,0.45055045,89.0014,02/17.0/2023,2000,g 12.0,4.0
# From MPEC 2021-P47
C/2018 P5 (PANSTARRS),e,7.2468,216.1960,131.9786,12.84575,0.0214074,0.64288990,31.0382,02/17.0/2023,2000,g 11.0,4.0
# From MPC118841
C/2018 R3 (Lemmon),e,69.7129,324.5837,112.7422,1571,0.0000158,0.99918329,0.0000,06/07.8103/2019,2000,g  9.5,4.0
# From MPEC 2022-M21
C/2018 R4 (Fuls),e,11.6673,298.5497,345.3139,344.3770,0.0001542,0.99499363,0.0000,03/02.4629/2018,2000,g 14.0,4.0
# From MPC114603
C/2018 R5 (Lemmon),e,103.7470,171.1202,178.2106,22.90251,0.0089925,0.84138556,13.4769,02/17.0/2023,2000,g 11.5,4.0
# From MPEC 2022-QC6
C/2018 S2 (TESS),e,64.1510,85.0983,290.8164,14.36092,0.0181105,0.61878657,28.3119,02/17.0/2023,2000,g  7.5,4.0
# From MPEC 2023-CD7
C/2018 U1 (Lemmon),h,11/03.1473/2021,108.3166,75.4916,180.4747,1.001532,4.992876,2000,5.0,4.0
# From MPC114604
C/2018 V1 (Machholz-Fujikawa-Iwamoto),h,12/02.8302/2018,144.0996,129.0801,89.1238,1.000359,0.390501,2000,12.0,4.0
# From MPC115884
C/2018 V2 (ATLAS),e,159.1675,357.0807,319.0280,25.07121,0.0078513,0.90086656,12.1273,02/17.0/2023,2000,g 15.0,4.0
# From MPEC 2023-CD7
P/2018 VN2 (Leonard),e,18.2566,226.4464,138.8826,4.062034,0.1203896,0.47870343,206.5196,02/17.0/2023,2000,g 15.0,4.0
# From MPEC 2022-VC5
A/2018 V3,e,164.9628,308.7035,3.6091,127.5874,0.0006839,0.98949321,0.0000,09/09.2392/2019,2000,g 15.7,2.0
# From MPEC 2022-M21
C/2018 V4 (Africano),e,69.0271,78.2783,359.9494,201.7320,0.0003440,0.98416172,0.0000,03/01.5503/2019,2000,g 12.5,4.0
# From MPEC 2021-P47
P/2018 V5 (Trujillo-Sheppard),e,10.5886,171.2860,260.6720,8.961237,0.0367411,0.47558377,58.6811,02/17.0/2023,2000,g 12.5,4.0
# From MPEC 2021-P47
C/2018 W1 (Catalina),e,83.3778,233.6616,251.2075,21.68570,0.0097599,0.93734889,13.4398,02/17.0/2023,2000,g 15.5,2.0
# From MPEC 2021-P47
C/2018 W2 (Africano),h,09/05.3251/2019,116.6248,181.8199,158.0761,1.000592,1.461105,2000,9.5,4.0
# From MPEC 2023-A50
A/2018 W3,e,104.8191,251.6726,313.9661,695.4608,0.0000537,0.99383077,0.0000,04/13.0650/2021,2000,g 10.5,2.0
# From MPC119996
C/2018 X2 (Fitzsimmons),e,23.0726,340.8073,161.9493,139.6498,0.0005972,0.98481463,0.0000,07/08.2696/2019,2000,g 12.0,4.0
# From MPC114604
